{
  "norad_id": 45071,
  "name": "STARLINK-1167",
  "history": [
    {
      "epoch": "2026-03-28T15:18:35.514720Z",
      "apogee_km": 475.3021018281497,
      "perigee_km": 472.1496967454459,
      "latitude_deg": -5.034355136349706e-06,
      "longitude_deg": 114.1719286029802,
      "height_km": 473.4214378124793,
      "semi_major_axis_km": 6851.862899286798,
      "eccentricity": 0.00023004,
      "inclination_deg": 53.1586,
      "raan_deg": 169.8754,
      "arg_perigee_deg": 40.2897,
      "mean_anomaly_deg": 319.8274,
      "mean_motion_rev_day": 15.30698883
    },
    {
      "epoch": "2026-03-29T08:32:48.533856Z",
      "apogee_km": 475.15108935916396,
      "perigee_km": 471.8248994893702,
      "latitude_deg": -5.591145626089105e-07,
      "longitude_deg": -148.42941079543988,
      "height_km": 473.12494915691104,
      "semi_major_axis_km": 6851.624994424266,
      "eccentricity": 0.00024273,
      "inclination_deg": 53.1591,
      "raan_deg": 166.5362,
      "arg_perigee_deg": 40.7006,
      "mean_anomaly_deg": 319.4176,
      "mean_motion_rev_day": 15.30778608
    },
    {
      "epoch": "2026-03-30T14:19:05.383776Z",
      "apogee_km": 474.8837286424741,
      "perigee_km": 471.5816425088142,
      "latitude_deg": -6.117818653089326e-05,
      "longitude_deg": 118.00587127380619,
      "height_km": 473.0178820728051,
      "semi_major_axis_km": 6851.369685575643,
      "eccentricity": 0.00024098,
      "inclination_deg": 53.1601,
      "raan_deg": 160.7644,
      "arg_perigee_deg": 47.6395,
      "mean_anomaly_deg": 312.4809,
      "mean_motion_rev_day": 15.30864173
    },
    {
      "epoch": "2026-03-31T10:41:10.649760Z",
      "apogee_km": 474.700713635968,
      "perigee_km": 470.954880123626,
      "latitude_deg": -1.6954840667214956e-05,
      "longitude_deg": 167.7065743599337,
      "height_km": 472.1786407578443,
      "semi_major_axis_km": 6850.964796879796,
      "eccentricity": 0.00027338,
      "inclination_deg": 53.159,
      "raan_deg": 156.8235,
      "arg_perigee_deg": 34.3066,
      "mean_anomaly_deg": 325.8111,
      "mean_motion_rev_day": 15.30999885
    },
    {
      "epoch": "2026-04-01T10:11:09.347136Z",
      "apogee_km": 474.38534605996574,
      "perigee_km": 470.4079262308196,
      "latitude_deg": 5.365900968991088e-05,
      "longitude_deg": 169.69066002814836,
      "height_km": 471.8436343004794,
      "semi_major_axis_km": 6850.533636145392,
      "eccentricity": 0.0002903,
      "inclination_deg": 53.1589,
      "raan_deg": 152.2672,
      "arg_perigee_deg": 43.1738,
      "mean_anomaly_deg": 316.9491,
      "mean_motion_rev_day": 15.31144425
    }
  ]
}